{"type":"FeatureCollection","features":[{"type":"Feature","properties":{"name":"Varese","acr":"VA"},"geometry":{"type":"Polygon","coordinates":[[[8.5796,45.7517],[8.5563,45.7741],[8.5523,45.7881],[8.5548,45.7981],[8.5583,45.8036],[8.5635,45.8072],[8.5816,45.8137],[8.592,45.8244],[8.5952,45.8336],[8.5923,45.8524],[8.5705,45.8895],[8.5716,45.9013],[8.5949,45.9225],[8.6823,45.9869],[8.7193,46.0111],[8.7264,46.018],[8.7289,46.0234],[8.7285,46.0302],[8.7206,46.041],[8.7156,46.0623],[8.7053,46.0832],[8.7079,46.0908],[8.7246,46.1102],[8.7427,46.1221],[8.7571,46.1035],[8.7834,46.0939],[8.8004,46.0953],[8.8061,46.1009],[8.8078,46.1004],[8.8153,46.0973],[8.8327,46.0835],[8.8471,46.0758],[8.8521,46.0755],[8.8545,46.0616],[8.8443,46.0485],[8.8344,46.0513],[8.8305,46.0458],[8.8352,46.0437],[8.8323,46.0405],[8.8299,46.0416],[8.828,46.0333],[8.8197,46.0253],[8.8059,46.0216],[8.7921,46.005],[8.7859,45.989],[8.791,45.9886],[8.7947,45.9921],[8.8211,45.9875],[8.8313,45.988],[8.8397,45.9834],[8.8495,45.973],[8.8679,45.9607],[8.8789,45.956],[8.8943,45.9585],[8.8987,45.9452],[8.8927,45.9351],[8.8931,45.9313],[8.8983,45.9253],[8.9134,45.9175],[8.9246,45.9059],[8.9255,45.9027],[8.9222,45.8949],[8.9243,45.8921],[8.9281,45.8913],[8.9322,45.8847],[8.9341,45.8701],[8.9417,45.8699],[8.9386,45.8634],[8.9304,45.8585],[8.9154,45.8435],[8.9124,45.8303],[8.9095,45.8296],[8.907,45.8154],[8.897,45.8129],[8.9028,45.7969],[8.9087,45.7933],[8.9004,45.7848],[8.9075,45.7765],[8.9061,45.7684],[8.9138,45.7694],[8.9221,45.7605],[8.9217,45.7551],[8.9293,45.7543],[8.93,45.7475],[8.9427,45.745],[8.9395,45.7372],[8.9477,45.7331],[8.9509,45.7255],[8.9515,45.7147],[8.9479,45.7066],[8.9402,45.7106],[8.9319,45.7068],[8.9319,45.6969],[8.9151,45.6887],[8.8947,45.6846],[8.8963,45.6802],[8.8987,45.6767],[8.9077,45.6748],[8.9092,45.6716],[8.9219,45.6701],[8.9227,45.6626],[8.9319,45.6512],[8.9479,45.6609],[8.9663,45.6655],[8.9778,45.6798],[8.9839,45.6754],[8.9851,45.6705],[8.9842,45.6533],[8.9783,45.6482],[8.9812,45.6455],[8.9858,45.6491],[9.0182,45.644],[9.027,45.6489],[9.0282,45.6432],[9.0361,45.6425],[9.0557,45.6465],[9.0548,45.6451],[9.0579,45.6423],[9.0625,45.6411],[9.0617,45.6368],[9.0573,45.6366],[9.0518,45.6334],[9.0532,45.6152],[9.0545,45.6129],[9.0577,45.6128],[9.0581,45.6095],[9.0613,45.6077],[9.0604,45.6002],[9.066,45.5958],[9.063,45.5804],[9.0508,45.5806],[9.0495,45.5775],[9.0257,45.5885],[9.0228,45.5845],[9.0029,45.5762],[9.0021,45.5742],[8.9835,45.5911],[8.9747,45.5867],[8.9703,45.5929],[8.9707,45.6044],[8.9673,45.6083],[8.9782,45.6146],[8.9734,45.618],[8.9672,45.6282],[8.9546,45.6255],[8.9535,45.6293],[8.9574,45.6316],[8.9565,45.6335],[8.9399,45.6426],[8.9296,45.6346],[8.9324,45.6265],[8.9367,45.6235],[8.9259,45.6195],[8.9155,45.6074],[8.8997,45.6054],[8.8678,45.592],[8.8736,45.5821],[8.8704,45.5772],[8.843,45.5713],[8.837,45.5685],[8.8347,45.5779],[8.8283,45.5824],[8.8199,45.5832],[8.8119,45.5908],[8.8064,45.6017],[8.7862,45.6024],[8.7823,45.5865],[8.7764,45.5872],[8.7685,45.5829],[8.7671,45.5781],[8.7646,45.5764],[8.7477,45.5723],[8.7495,45.5668],[8.7404,45.5625],[8.7392,45.5602],[8.7302,45.561],[8.7243,45.5661],[8.7235,45.5692],[8.7189,45.5693],[8.7143,45.5622],[8.7069,45.5583],[8.7055,45.5692],[8.6933,45.5778],[8.696,45.5824],[8.7044,45.5883],[8.7031,45.6001],[8.7001,45.604],[8.6993,45.6017],[8.6919,45.6041],[8.6888,45.6082],[8.6939,45.6096],[8.6821,45.6203],[8.6631,45.622],[8.6659,45.6303],[8.6589,45.6377],[8.6604,45.6419],[8.6657,45.6429],[8.6709,45.6415],[8.6745,45.6356],[8.6786,45.6336],[8.6851,45.6343],[8.6882,45.637],[8.688,45.6417],[8.6847,45.6469],[8.6698,45.6614],[8.6724,45.6663],[8.682,45.6694],[8.6812,45.6764],[8.6751,45.6776],[8.6675,45.675],[8.6574,45.6745],[8.6409,45.6765],[8.6414,45.6872],[8.6544,45.7079],[8.6547,45.7111],[8.6518,45.716],[8.6429,45.7232],[8.6021,45.7263],[8.596,45.7289],[8.5919,45.7323],[8.5837,45.7475],[8.5796,45.7517]]]}},{"type":"Feature","properties":{"name":"Como","acr":"CO"},"geometry":{"type":"MultiPolygon","coordinates":[[[[8.9506,45.7207],[8.9509,45.7255],[8.9477,45.7331],[8.9395,45.7372],[8.9427,45.745],[8.93,45.7475],[8.9293,45.7543],[8.9217,45.7551],[8.9221,45.7605],[8.9138,45.7694],[8.9061,45.7684],[8.9075,45.7765],[8.9004,45.7848],[8.9087,45.7933],[8.9028,45.7969],[8.897,45.8129],[8.907,45.8154],[8.9095,45.8296],[8.9189,45.8336],[8.9294,45.8333],[8.9344,45.8391],[8.9495,45.8435],[8.9557,45.8425],[8.9617,45.839],[8.962,45.836],[8.9703,45.8325],[8.9859,45.8379],[8.9954,45.8343],[8.9965,45.8316],[8.9938,45.8239],[9.0048,45.8202],[9.0148,45.8185],[9.023,45.8223],[9.0306,45.8208],[9.0338,45.8226],[9.0312,45.8252],[9.0358,45.8412],[9.0388,45.8422],[9.0405,45.8466],[9.0493,45.8522],[9.0485,45.8625],[9.0543,45.8723],[9.0588,45.8753],[9.0666,45.8762],[9.0778,45.8856],[9.0888,45.9007],[9.0866,45.9021],[9.078,45.8998],[9.0699,45.912],[9.0496,45.9212],[9.043,45.9267],[9.0304,45.9265],[9.0194,45.9286],[9.0218,45.9376],[9.0129,45.9423],[9.0151,45.9506],[9.0141,45.9602],[8.994,45.9666],[8.9881,45.9724],[9.003,45.9796],[9.014,45.9885],[9.0283,45.9937],[9.0244,46.002],[9.0223,46.0165],[9.0101,46.0261],[9.0078,46.0304],[9.0089,46.0362],[9.0158,46.0464],[9.0238,46.0526],[9.0478,46.0617],[9.0616,46.0612],[9.0767,46.0645],[9.0788,46.0756],[9.0894,46.085],[9.0892,46.0901],[9.0801,46.1058],[9.0734,46.1136],[9.0716,46.1195],[9.1006,46.1284],[9.1124,46.1342],[9.1208,46.1346],[9.1336,46.1511],[9.1433,46.1574],[9.1544,46.1616],[9.1596,46.1705],[9.1683,46.1724],[9.1835,46.1716],[9.1935,46.1799],[9.1962,46.1879],[9.1939,46.194],[9.2,46.2063],[9.2182,46.2147],[9.2213,46.2299],[9.2348,46.2338],[9.2565,46.2324],[9.2752,46.2396],[9.303,46.2356],[9.3097,46.2373],[9.3171,46.2349],[9.3334,46.2348],[9.3479,46.23],[9.3548,46.2212],[9.3738,46.2131],[9.3905,46.2111],[9.4002,46.2119],[9.4136,46.2154],[9.4244,46.2217],[9.4408,46.2145],[9.4249,46.1899],[9.4242,46.1551],[9.4141,46.1369],[9.4106,46.1443],[9.4102,46.1499],[9.3786,46.1521],[9.3619,46.1574],[9.3572,46.1504],[9.3005,46.1259],[9.2923,46.1158],[9.2951,46.1075],[9.2987,46.1045],[9.294,46.0829],[9.2893,46.0727],[9.2896,46.0593],[9.2753,46.04],[9.2648,46.0301],[9.2609,46.0145],[9.2646,46.0008],[9.2727,45.999],[9.2774,45.9927],[9.2846,45.9671],[9.2671,45.9664],[9.2624,45.964],[9.2592,45.9595],[9.2565,45.949],[9.2698,45.9485],[9.2765,45.9432],[9.2777,45.9368],[9.2695,45.9292],[9.2683,45.9255],[9.2802,45.9127],[9.2854,45.9025],[9.2841,45.8988],[9.2894,45.8932],[9.3027,45.8936],[9.3043,45.8994],[9.3124,45.9054],[9.3241,45.8958],[9.3154,45.8882],[9.3209,45.8796],[9.3266,45.8781],[9.3319,45.8728],[9.3326,45.8657],[9.3275,45.8624],[9.3225,45.8532],[9.3185,45.8503],[9.3175,45.8467],[9.3204,45.8436],[9.3033,45.839],[9.2944,45.8282],[9.289,45.8272],[9.2856,45.823],[9.2879,45.815],[9.2935,45.8151],[9.2937,45.8126],[9.2742,45.8041],[9.2736,45.802],[9.2583,45.7925],[9.2626,45.7879],[9.2619,45.7808],[9.2503,45.7791],[9.2442,45.7673],[9.2535,45.7579],[9.2567,45.751],[9.2471,45.7426],[9.2425,45.7293],[9.2352,45.727],[9.2316,45.7175],[9.2141,45.715],[9.2042,45.7092],[9.1953,45.6983],[9.1961,45.6871],[9.1918,45.6784],[9.1944,45.6677],[9.1797,45.6635],[9.1638,45.673],[9.1538,45.6866],[9.1399,45.6948],[9.1296,45.6926],[9.1218,45.6885],[9.1095,45.6917],[9.1032,45.6969],[9.0913,45.6863],[9.067,45.6851],[9.0616,45.6672],[9.0609,45.6577],[9.0529,45.6574],[9.0557,45.6465],[9.0433,45.6431],[9.0282,45.6432],[9.027,45.6489],[9.0182,45.644],[8.9858,45.6491],[8.9812,45.6455],[8.9783,45.6482],[8.9842,45.6533],[8.9851,45.6705],[8.9839,45.6754],[8.9778,45.6798],[8.9663,45.6655],[8.9479,45.6609],[8.9319,45.6512],[8.9227,45.6626],[8.9219,45.6701],[8.9117,45.6708],[8.9077,45.6748],[8.8987,45.6767],[8.8947,45.6846],[8.9151,45.6887],[8.9319,45.6969],[8.9312,45.7065],[8.9402,45.7106],[8.9479,45.7066],[8.9515,45.7147],[8.9506,45.7207]]]]}},{"type":"Feature","properties":{"name":"Sondrio","acr":"SO"},"geometry":{"type":"Polygon","coordinates":[[[9.6435,46.06],[9.6404,46.0575],[9.6417,46.0553],[9.6339,46.0469],[9.6219,46.0473],[9.6041,46.0436],[9.6003,46.0337],[9.5873,46.024],[9.5785,46.0211],[9.5592,46.0227],[9.5559,46.0215],[9.5548,46.0169],[9.5512,46.0141],[9.5343,46.0149],[9.5318,46.0114],[9.5269,46.0115],[9.5222,46.0312],[9.5109,46.0416],[9.5018,46.0457],[9.5088,46.0564],[9.5098,46.0625],[9.4929,46.0708],[9.4753,46.0721],[9.4305,46.0861],[9.415,46.0948],[9.4129,46.1194],[9.4141,46.1369],[9.4242,46.1551],[9.4249,46.1899],[9.4408,46.2145],[9.4244,46.2217],[9.4136,46.2154],[9.4002,46.2119],[9.3905,46.2111],[9.3738,46.2131],[9.3548,46.2212],[9.3479,46.23],[9.3334,46.2348],[9.3171,46.2349],[9.3097,46.2373],[9.303,46.2356],[9.2752,46.2396],[9.2617,46.2333],[9.2476,46.2336],[9.2498,46.2404],[9.2494,46.2545],[9.2546,46.2688],[9.274,46.2912],[9.2845,46.2969],[9.2821,46.3083],[9.3001,46.3266],[9.2939,46.3308],[9.2918,46.335],[9.2924,46.3382],[9.2989,46.3428],[9.297,46.3508],[9.2923,46.3562],[9.2815,46.3589],[9.2767,46.3694],[9.2782,46.3782],[9.2843,46.3861],[9.2788,46.3888],[9.2757,46.3947],[9.2812,46.4006],[9.2808,46.4102],[9.275,46.4186],[9.2647,46.4203],[9.2487,46.4318],[9.2475,46.4362],[9.2477,46.4472],[9.252,46.4495],[9.2656,46.4515],[9.2717,46.4545],[9.2778,46.4616],[9.2738,46.4701],[9.2749,46.4808],[9.2824,46.4967],[9.2971,46.499],[9.3109,46.5045],[9.3521,46.5052],[9.362,46.5097],[9.3723,46.5037],[9.3737,46.4998],[9.3684,46.4949],[9.3708,46.4897],[9.4,46.4696],[9.4103,46.4665],[9.4128,46.4669],[9.4209,46.4744],[9.4241,46.4794],[9.4248,46.4895],[9.4328,46.4968],[9.4516,46.5002],[9.4533,46.5049],[9.4609,46.5074],[9.4593,46.4849],[9.4495,46.4834],[9.4498,46.4795],[9.4615,46.4802],[9.4635,46.4704],[9.4625,46.4672],[9.4574,46.4632],[9.4585,46.4414],[9.4537,46.4222],[9.4612,46.4112],[9.4669,46.3981],[9.4677,46.3879],[9.4616,46.3763],[9.496,46.364],[9.5083,46.35],[9.5115,46.3389],[9.5177,46.3292],[9.5287,46.3171],[9.5422,46.3061],[9.5494,46.3023],[9.5542,46.3054],[9.5608,46.3055],[9.5829,46.2945],[9.6099,46.2945],[9.6209,46.2878],[9.6351,46.2862],[9.647,46.289],[9.6722,46.301],[9.6811,46.2986],[9.6872,46.2943],[9.704,46.2909],[9.7145,46.2931],[9.7151,46.2997],[9.7178,46.3052],[9.7242,46.3097],[9.7259,46.3137],[9.7261,46.3192],[9.7221,46.3211],[9.7207,46.3276],[9.7271,46.3335],[9.7233,46.3407],[9.7373,46.3507],[9.7436,46.3515],[9.7582,46.3436],[9.7647,46.3378],[9.7775,46.335],[9.7954,46.3432],[9.8217,46.3516],[9.8377,46.3613],[9.8518,46.364],[9.8705,46.363],[9.883,46.371],[9.9064,46.3809],[9.9254,46.366],[9.9309,46.368],[9.9298,46.3717],[9.9335,46.3745],[9.9529,46.3794],[9.9579,46.3784],[9.9554,46.3737],[9.9659,46.3628],[9.9835,46.3537],[9.9964,46.3509],[9.994,46.3414],[9.9862,46.3347],[9.9808,46.3236],[9.997,46.314],[10.0009,46.3027],[9.9933,46.2975],[9.9926,46.2931],[9.9967,46.2845],[10.0301,46.2771],[10.0558,46.2637],[10.0603,46.2511],[10.0599,46.2475],[10.0478,46.2322],[10.0474,46.2287],[10.0587,46.2248],[10.0708,46.2171],[10.0831,46.2264],[10.0903,46.228],[10.1023,46.2283],[10.124,46.2242],[10.1423,46.229],[10.1464,46.2313],[10.1509,46.2397],[10.1745,46.2547],[10.1763,46.2579],[10.173,46.2654],[10.1655,46.271],[10.1614,46.2763],[10.1618,46.2802],[10.1498,46.2944],[10.1382,46.3007],[10.1389,46.3047],[10.1171,46.3137],[10.1061,46.3314],[10.1083,46.3498],[10.1113,46.353],[10.1262,46.3601],[10.1289,46.3633],[10.1261,46.3712],[10.1277,46.3776],[10.1421,46.3861],[10.1579,46.3856],[10.1633,46.3898],[10.1624,46.4045],[10.1656,46.407],[10.1614,46.4149],[10.1583,46.4162],[10.153,46.4143],[10.1483,46.4169],[10.1431,46.4277],[10.1354,46.4288],[10.1307,46.4319],[10.1013,46.4229],[10.0796,46.4211],[10.0798,46.4242],[10.062,46.4272],[10.0592,46.4296],[10.0552,46.4405],[10.0431,46.4421],[10.0398,46.4457],[10.0439,46.4548],[10.0519,46.4603],[10.0534,46.4631],[10.0509,46.4721],[10.0477,46.4746],[10.0444,46.4834],[10.0468,46.5106],[10.0517,46.514],[10.054,46.5209],[10.0525,46.5304],[10.0447,46.5365],[10.0441,46.5394],[10.0492,46.5439],[10.0597,46.5456],[10.0831,46.5641],[10.0851,46.5676],[10.0792,46.5731],[10.0794,46.5749],[10.0921,46.5768],[10.1011,46.5828],[10.1012,46.5887],[10.0981,46.5967],[10.1022,46.6108],[10.1189,46.6062],[10.1302,46.6056],[10.1405,46.6108],[10.1646,46.616],[10.1906,46.6261],[10.2096,46.6201],[10.2192,46.6218],[10.223,46.6283],[10.2403,46.6351],[10.2411,46.6273],[10.2518,46.6161],[10.2564,46.6085],[10.2416,46.5915],[10.244,46.5784],[10.2535,46.5718],[10.2599,46.5751],[10.2711,46.5765],[10.2823,46.5715],[10.2892,46.5677],[10.2943,46.5601],[10.2957,46.5504],[10.3113,46.5469],[10.3251,46.5515],[10.3382,46.543],[10.3422,46.5437],[10.348,46.5484],[10.3522,46.5556],[10.3663,46.5549],[10.3976,46.5439],[10.4126,46.5503],[10.4193,46.5511],[10.4366,46.5374],[10.4531,46.5306],[10.4579,46.5106],[10.473,46.5006],[10.4761,46.4955],[10.4823,46.4942],[10.497,46.4974],[10.5429,46.4921],[10.555,46.489],[10.5623,46.4818],[10.5761,46.4743],[10.6005,46.4687],[10.6218,46.448],[10.6166,46.4436],[10.6192,46.4369],[10.6165,46.43],[10.6179,46.4174],[10.6192,46.4144],[10.6282,46.4077],[10.631,46.4023],[10.6108,46.3873],[10.606,46.3792],[10.5981,46.3774],[10.567,46.3779],[10.542,46.3609],[10.5439,46.3589],[10.5433,46.3567],[10.54,46.3548],[10.5343,46.3542],[10.5302,46.3567],[10.5199,46.356],[10.5118,46.3347],[10.4981,46.3348],[10.4868,46.3466],[10.471,46.3547],[10.4594,46.352],[10.4328,46.3371],[10.4197,46.3337],[10.3714,46.2936],[10.3469,46.2905],[10.3391,46.2863],[10.3348,46.2882],[10.3285,46.2871],[10.3208,46.2817],[10.3154,46.2765],[10.3143,46.2599],[10.3009,46.2496],[10.2968,46.2412],[10.2947,46.2237],[10.2801,46.2171],[10.2788,46.2159],[10.2819,46.2134],[10.2716,46.2111],[10.2534,46.2033],[10.229,46.1993],[10.2284,46.1922],[10.2257,46.1868],[10.1799,46.178],[10.1746,46.1652],[10.1594,46.1595],[10.1633,46.1482],[10.1718,46.1362],[10.1649,46.1071],[10.1713,46.103],[10.1748,46.0932],[10.1793,46.0906],[10.1786,46.0864],[10.185,46.081],[10.1818,46.0799],[10.1754,46.0708],[10.1696,46.057],[10.1467,46.0562],[10.1347,46.0601],[10.1217,46.0593],[10.1026,46.0508],[10.0958,46.0555],[10.0925,46.0624],[10.0927,46.0683],[10.104,46.083],[10.1032,46.0879],[10.0959,46.0913],[10.0736,46.0881],[10.0604,46.0892],[10.0543,46.0852],[10.0424,46.085],[10.0327,46.0876],[10.0185,46.086],[10.0121,46.0817],[10.0111,46.0726],[9.9915,46.0728],[9.9863,46.0705],[9.9847,46.0663],[9.9805,46.0653],[9.9467,46.0665],[9.91,46.0577],[9.9065,46.0541],[9.9081,46.0464],[9.8833,46.0459],[9.8723,46.0512],[9.8621,46.0463],[9.848,46.0467],[9.8367,46.044],[9.8315,46.0472],[9.8111,46.0497],[9.8074,46.0537],[9.7928,46.0536],[9.7783,46.0613],[9.7664,46.0644],[9.7511,46.0615],[9.7451,46.0629],[9.7376,46.0582],[9.7216,46.0637],[9.7097,46.064],[9.7089,46.0605],[9.7044,46.0573],[9.6886,46.0549],[9.6696,46.0607],[9.6435,46.06]]]}},{"type":"Feature","properties":{"name":"Milano","acr":"MI"},"geometry":{"type":"MultiPolygon","coordinates":[[[[8.8429,45.3938],[8.8422,45.3989],[8.8245,45.4195],[8.8258,45.4339],[8.8213,45.4354],[8.8081,45.4333],[8.81,45.4374],[8.8078,45.4477],[8.8,45.4558],[8.7884,45.4625],[8.7912,45.4702],[8.7906,45.4802],[8.7875,45.4862],[8.7735,45.4847],[8.7603,45.4969],[8.7385,45.4985],[8.7279,45.5024],[8.7228,45.506],[8.7123,45.522],[8.7144,45.5279],[8.7194,45.5311],[8.7091,45.5439],[8.7062,45.5528],[8.7069,45.5583],[8.7143,45.5622],[8.7189,45.5693],[8.7235,45.5692],[8.7243,45.5661],[8.7302,45.561],[8.7392,45.5602],[8.7404,45.5625],[8.7495,45.5668],[8.7477,45.5723],[8.7646,45.5764],[8.7671,45.5781],[8.7685,45.5829],[8.7764,45.5872],[8.7823,45.5865],[8.7862,45.6024],[8.8064,45.6017],[8.8119,45.5908],[8.8199,45.5832],[8.8283,45.5824],[8.8347,45.5779],[8.837,45.5685],[8.843,45.5713],[8.866,45.5759],[8.8711,45.5775],[8.8736,45.5806],[8.8678,45.592],[8.8997,45.6054],[8.9155,45.6074],[8.9259,45.6195],[8.9367,45.6235],[8.9324,45.6265],[8.9296,45.6346],[8.9399,45.6426],[8.9565,45.6335],[8.9574,45.6316],[8.9535,45.6293],[8.9546,45.6255],[8.9672,45.6282],[8.9734,45.618],[8.9782,45.6146],[8.9673,45.6083],[8.9707,45.6044],[8.9703,45.5929],[8.9747,45.5867],[8.9835,45.5911],[9.0021,45.5742],[9.0029,45.5762],[9.0228,45.5845],[9.0257,45.5885],[9.0495,45.5775],[9.0508,45.5806],[9.063,45.5804],[9.066,45.5958],[9.0604,45.6002],[9.0613,45.6077],[9.0581,45.6095],[9.0577,45.6128],[9.0545,45.6129],[9.0532,45.6152],[9.0529,45.6232],[9.1078,45.6227],[9.1094,45.6208],[9.1046,45.61],[9.0944,45.6065],[9.1008,45.5967],[9.1006,45.5936],[9.094,45.591],[9.0956,45.5879],[9.1449,45.5837],[9.1468,45.5878],[9.1507,45.5889],[9.1629,45.5915],[9.1769,45.5918],[9.1739,45.5902],[9.1771,45.5855],[9.1934,45.5788],[9.2031,45.576],[9.2178,45.5793],[9.2234,45.5758],[9.2202,45.5704],[9.227,45.5712],[9.227,45.566],[9.235,45.5634],[9.2426,45.5634],[9.2557,45.5571],[9.2502,45.5532],[9.2718,45.5566],[9.2687,45.5513],[9.2733,45.5485],[9.3052,45.5367],[9.3129,45.5369],[9.3255,45.54],[9.3252,45.5438],[9.3218,45.5444],[9.3212,45.5477],[9.3238,45.5498],[9.3228,45.5541],[9.327,45.5619],[9.3517,45.5587],[9.3614,45.5542],[9.3631,45.5569],[9.3676,45.5577],[9.3834,45.5577],[9.3952,45.5622],[9.3923,45.5653],[9.3983,45.5715],[9.4047,45.5751],[9.4426,45.5856],[9.4446,45.5919],[9.4665,45.5935],[9.4817,45.5968],[9.4786,45.5989],[9.4779,45.6048],[9.4823,45.6058],[9.4836,45.6116],[9.4812,45.6196],[9.487,45.622],[9.4954,45.629],[9.4903,45.6347],[9.4959,45.6397],[9.4955,45.6325],[9.5189,45.6236],[9.5386,45.5823],[9.5346,45.5706],[9.5255,45.5629],[9.5247,45.5598],[9.5279,45.5549],[9.526,45.5491],[9.5272,45.5414],[9.5374,45.5294],[9.5371,45.5257],[9.5503,45.5242],[9.5516,45.5213],[9.5515,45.519],[9.5479,45.516],[9.5487,45.5117],[9.5416,45.5018],[9.518,45.5082],[9.5192,45.5045],[9.5036,45.4926],[9.4936,45.4785],[9.4916,45.465],[9.4839,45.4487],[9.4726,45.448],[9.4679,45.4501],[9.4619,45.4546],[9.4561,45.4627],[9.4584,45.467],[9.451,45.469],[9.4342,45.4688],[9.4316,45.4604],[9.4175,45.4515],[9.4171,45.4385],[9.4109,45.4351],[9.4206,45.4302],[9.426,45.422],[9.4229,45.4218],[9.4171,45.4108],[9.4111,45.4068],[9.4049,45.3911],[9.4015,45.392],[9.4,45.3974],[9.3867,45.3994],[9.3831,45.3964],[9.3816,45.3885],[9.3729,45.3861],[9.3726,45.3809],[9.375,45.3791],[9.3782,45.3689],[9.3639,45.3657],[9.353,45.3677],[9.3569,45.36],[9.3593,45.3588],[9.3624,45.3462],[9.3563,45.3435],[9.3718,45.3298],[9.3806,45.3188],[9.3833,45.3179],[9.3874,45.3199],[9.3927,45.3165],[9.3882,45.313],[9.381,45.3141],[9.3763,45.3113],[9.3859,45.3068],[9.3797,45.303],[9.369,45.3032],[9.3668,45.3062],[9.3663,45.3118],[9.3598,45.3163],[9.3567,45.3152],[9.3547,45.3208],[9.3388,45.313],[9.338,45.3146],[9.3316,45.3122],[9.3218,45.3222],[9.3091,45.3279],[9.3031,45.3272],[9.2978,45.3295],[9.2872,45.3304],[9.2823,45.3301],[9.2812,45.3278],[9.2735,45.3246],[9.2563,45.3258],[9.246,45.3245],[9.2374,45.3284],[9.2315,45.3336],[9.2295,45.3334],[9.2308,45.3312],[9.2259,45.3265],[9.2192,45.3259],[9.2085,45.3327],[9.2017,45.3348],[9.2006,45.3254],[9.1966,45.317],[9.1821,45.3107],[9.1937,45.295],[9.2008,45.2911],[9.1876,45.2922],[9.178,45.2994],[9.1513,45.2988],[9.1469,45.3055],[9.1411,45.3096],[9.1347,45.3078],[9.1294,45.3111],[9.1259,45.3086],[9.0799,45.3035],[9.0736,45.308],[9.0808,45.3158],[9.0699,45.3145],[9.0719,45.3064],[9.0364,45.3013],[9.0301,45.2965],[9.025,45.305],[9.0287,45.307],[9.0317,45.3038],[9.0363,45.3036],[9.0317,45.3145],[9.0202,45.326],[9.0013,45.3199],[8.9917,45.3228],[8.9883,45.3216],[8.9987,45.3026],[8.9923,45.301],[8.9949,45.2957],[9.0152,45.2911],[9.0187,45.2806],[9.0151,45.2759],[9.007,45.2781],[8.9829,45.265],[8.9741,45.2736],[8.9446,45.2915],[8.9439,45.3136],[8.942,45.316],[8.9313,45.3199],[8.9235,45.3169],[8.9196,45.3205],[8.9063,45.3264],[8.911,45.331],[8.9104,45.3326],[8.8659,45.3443],[8.864,45.3512],[8.8679,45.3574],[8.8498,45.3678],[8.8475,45.3733],[8.8476,45.3903],[8.8429,45.3938]]],[[[9.5157,45.1871],[9.5186,45.181],[9.5264,45.1788],[9.5266,45.1695],[9.5316,45.1654],[9.4783,45.1615],[9.4775,45.1657],[9.469,45.1686],[9.4594,45.1778],[9.4568,45.1833],[9.447,45.187],[9.4397,45.186],[9.4385,45.1876],[9.4411,45.1898],[9.4463,45.1892],[9.4707,45.2013],[9.4855,45.1918],[9.4912,45.1913],[9.5017,45.1861],[9.5157,45.1871]]]]}},{"type":"Feature","properties":{"name":"Bergamo","acr":"BG"},"geometry":{"type":"Polygon","coordinates":[[[9.5908,45.4761],[9.5863,45.4697],[9.5788,45.4651],[9.5776,45.4602],[9.5508,45.4603],[9.5477,45.4631],[9.5412,45.4791],[9.5451,45.4874],[9.5422,45.4873],[9.531,45.4942],[9.5186,45.5051],[9.5178,45.5079],[9.5196,45.5083],[9.5412,45.5015],[9.5487,45.5117],[9.5479,45.516],[9.5515,45.519],[9.5503,45.5242],[9.5371,45.5257],[9.5374,45.5294],[9.5295,45.5371],[9.5263,45.5442],[9.5279,45.5549],[9.5248,45.5617],[9.5346,45.5706],[9.5386,45.5823],[9.5189,45.6236],[9.4955,45.6325],[9.495,45.6486],[9.4903,45.6505],[9.4879,45.6553],[9.4872,45.6646],[9.4766,45.6693],[9.4707,45.6699],[9.4619,45.6787],[9.451,45.6844],[9.4595,45.7025],[9.4575,45.708],[9.4497,45.7159],[9.4473,45.7314],[9.452,45.7419],[9.4571,45.747],[9.4458,45.7605],[9.4509,45.7633],[9.4657,45.7644],[9.4706,45.7681],[9.4511,45.7816],[9.4503,45.7859],[9.4572,45.7882],[9.4688,45.7817],[9.4744,45.7827],[9.48,45.7857],[9.4775,45.7879],[9.481,45.793],[9.4951,45.793],[9.4964,45.7963],[9.4877,45.8102],[9.4812,45.8145],[9.4731,45.825],[9.4747,45.8405],[9.4669,45.8505],[9.4708,45.8592],[9.4849,45.8616],[9.4933,45.8586],[9.4933,45.8629],[9.4871,45.8645],[9.4924,45.8669],[9.506,45.8701],[9.517,45.8688],[9.524,45.8703],[9.5225,45.8739],[9.5134,45.8812],[9.506,45.8842],[9.5178,45.8863],[9.5074,45.8933],[9.5053,45.8987],[9.528,45.9174],[9.5291,45.9265],[9.5409,45.9442],[9.5368,45.9572],[9.5318,45.9583],[9.5216,45.9649],[9.508,45.967],[9.501,45.9722],[9.4991,45.9757],[9.4981,45.9907],[9.495,45.9982],[9.4861,46.003],[9.4902,46.0113],[9.5318,46.0114],[9.5343,46.0149],[9.5512,46.0141],[9.5548,46.0169],[9.5559,46.0215],[9.5592,46.0227],[9.5785,46.0211],[9.5954,46.029],[9.6003,46.0337],[9.6041,46.0436],[9.6219,46.0473],[9.6339,46.0469],[9.6417,46.0553],[9.6404,46.0575],[9.6435,46.06],[9.6696,46.0607],[9.6886,46.0549],[9.7044,46.0573],[9.7089,46.0605],[9.7097,46.064],[9.7216,46.0637],[9.7376,46.0582],[9.7451,46.0629],[9.7511,46.0615],[9.7664,46.0644],[9.7783,46.0613],[9.7928,46.0536],[9.8074,46.0537],[9.8111,46.0497],[9.8315,46.0472],[9.8367,46.044],[9.848,46.0467],[9.8621,46.0463],[9.8723,46.0512],[9.8833,46.0459],[9.9081,46.0464],[9.9065,46.0541],[9.91,46.0577],[9.9467,46.0665],[9.9805,46.0653],[9.9847,46.0663],[9.9863,46.0705],[9.9915,46.0728],[10.0111,46.0726],[10.0121,46.0817],[10.0185,46.086],[10.0327,46.0876],[10.0424,46.085],[10.0543,46.0852],[10.0604,46.0892],[10.0736,46.0881],[10.0959,46.0913],[10.1032,46.0879],[10.104,46.083],[10.0927,46.0683],[10.0925,46.0624],[10.0958,46.0555],[10.1026,46.0508],[10.1217,46.0593],[10.1347,46.0601],[10.1467,46.0562],[10.1696,46.057],[10.1739,46.0523],[10.1927,46.0516],[10.202,46.0459],[10.2061,46.0461],[10.2119,46.0507],[10.2281,46.0482],[10.2259,46.0414],[10.2334,46.0348],[10.2492,46.0358],[10.2549,46.0306],[10.2546,46.0255],[10.2622,46.0208],[10.2614,46.0178],[10.2556,46.0135],[10.2501,46.0111],[10.237,46.0112],[10.2062,46.0074],[10.1977,46.004],[10.1927,46.0008],[10.1888,45.9915],[10.1765,45.9827],[10.1781,45.9742],[10.1734,45.9711],[10.14,45.9639],[10.1252,45.9585],[10.1192,45.9542],[10.1159,45.948],[10.1145,45.9362],[10.1042,45.9304],[10.097,45.929],[10.0932,45.9204],[10.098,45.9121],[10.0964,45.9074],[10.1017,45.8988],[10.1073,45.8938],[10.109,45.8857],[10.143,45.8688],[10.1498,45.8631],[10.1458,45.8519],[10.1214,45.836],[10.1192,45.8282],[10.1081,45.8155],[10.1008,45.8093],[10.0716,45.7974],[10.0638,45.7884],[10.0574,45.7762],[10.0552,45.7619],[10.0638,45.7489],[10.0663,45.7407],[10.0591,45.7088],[10.0653,45.6913],[10.0632,45.6828],[10.0556,45.6783],[10.0444,45.6749],[9.9998,45.6721],[9.9657,45.664],[9.957,45.6657],[9.9423,45.6653],[9.938,45.6617],[9.9382,45.6572],[9.9312,45.6472],[9.9273,45.6463],[9.9225,45.6497],[9.917,45.6502],[9.9158,45.6475],[9.9178,45.6433],[9.9039,45.6305],[9.8957,45.6096],[9.8916,45.6044],[9.8874,45.6027],[9.876,45.6095],[9.8738,45.6069],[9.8652,45.6106],[9.8615,45.6049],[9.8506,45.6032],[9.8491,45.5988],[9.8539,45.5958],[9.855,45.5841],[9.845,45.5837],[9.8418,45.5794],[9.8436,45.5697],[9.8411,45.5682],[9.8368,45.5552],[9.8366,45.5492],[9.8533,45.54],[9.8528,45.5198],[9.8588,45.516],[9.8625,45.5102],[9.8645,45.5041],[9.8634,45.4967],[9.8692,45.4953],[9.8726,45.4895],[9.8724,45.4863],[9.8826,45.4736],[9.8868,45.4727],[9.8904,45.4674],[9.8923,45.4608],[9.8886,45.4499],[9.8896,45.4273],[9.8735,45.4332],[9.8632,45.4315],[9.8578,45.4342],[9.8522,45.4468],[9.8465,45.4521],[9.8401,45.4514],[9.8351,45.448],[9.8277,45.4552],[9.8231,45.4565],[9.8142,45.453],[9.8241,45.4462],[9.811,45.4386],[9.8079,45.4228],[9.7896,45.4265],[9.7846,45.4295],[9.7693,45.4302],[9.7703,45.4393],[9.7627,45.4557],[9.7533,45.4557],[9.7462,45.4682],[9.7359,45.4722],[9.7365,45.4755],[9.73,45.4778],[9.7219,45.4768],[9.7198,45.4821],[9.7139,45.4827],[9.7083,45.4823],[9.7054,45.4788],[9.6981,45.4639],[9.6988,45.4606],[9.6898,45.4584],[9.6854,45.4438],[9.6821,45.4412],[9.6618,45.4372],[9.6503,45.454],[9.6396,45.4584],[9.6261,45.4582],[9.6266,45.4561],[9.62,45.4559],[9.6103,45.4639],[9.6076,45.4714],[9.6086,45.4755],[9.5934,45.4737],[9.5908,45.4761]]]}},{"type":"Feature","properties":{"name":"Brescia","acr":"BS"},"geometry":{"type":"Polygon","coordinates":[[[10.4284,45.3208],[10.4315,45.313],[10.4257,45.3049],[10.4251,45.2966],[10.4078,45.2927],[10.3971,45.2857],[10.3906,45.2555],[10.3973,45.2501],[10.3936,45.2456],[10.3835,45.2485],[10.3805,45.2477],[10.3784,45.2409],[10.3723,45.2408],[10.362,45.2461],[10.3572,45.231],[10.3614,45.2154],[10.3436,45.2113],[10.3431,45.2075],[10.334,45.2053],[10.3177,45.2047],[10.3184,45.2151],[10.3055,45.2239],[10.2907,45.2265],[10.2783,45.2321],[10.2694,45.2417],[10.2663,45.2508],[10.2635,45.2515],[10.2575,45.2526],[10.2504,45.2508],[10.2483,45.2445],[10.246,45.2429],[10.2231,45.2402],[10.2208,45.2418],[10.2218,45.2333],[10.2198,45.2247],[10.1893,45.2343],[10.1804,45.239],[10.1662,45.2421],[10.1605,45.2393],[10.1538,45.2396],[10.145,45.2433],[10.1412,45.2418],[10.1259,45.2468],[10.1013,45.2473],[10.0995,45.2486],[10.0996,45.2531],[10.0906,45.2544],[10.0871,45.2587],[10.0839,45.2696],[10.0721,45.2707],[10.0628,45.2743],[10.0622,45.2768],[10.0495,45.2804],[10.0293,45.2768],[10.0194,45.284],[9.9994,45.289],[9.9905,45.297],[9.9813,45.2999],[9.9747,45.3083],[9.9673,45.313],[9.9448,45.3205],[9.9328,45.3289],[9.9289,45.3286],[9.9155,45.3363],[9.8987,45.338],[9.8948,45.3412],[9.8833,45.3576],[9.8887,45.3606],[9.8869,45.3645],[9.8874,45.3787],[9.8889,45.3877],[9.893,45.3946],[9.8895,45.4174],[9.8886,45.4499],[9.8922,45.4613],[9.8871,45.4725],[9.8826,45.4736],[9.8724,45.4863],[9.8726,45.4895],[9.8692,45.4953],[9.8634,45.4967],[9.8645,45.5041],[9.8625,45.5102],[9.8588,45.516],[9.8528,45.5198],[9.8533,45.54],[9.8366,45.5492],[9.8368,45.5552],[9.8411,45.5682],[9.8436,45.5697],[9.8417,45.579],[9.8433,45.5819],[9.8459,45.5839],[9.855,45.5841],[9.8539,45.5958],[9.8491,45.5988],[9.8506,45.6032],[9.8615,45.6049],[9.8652,45.6106],[9.8738,45.6069],[9.876,45.6095],[9.8874,45.6027],[9.8916,45.6044],[9.8957,45.6096],[9.9039,45.6305],[9.9178,45.6433],[9.9158,45.6475],[9.917,45.6502],[9.9225,45.6497],[9.9273,45.6463],[9.9312,45.6472],[9.9382,45.6572],[9.938,45.6617],[9.9423,45.6653],[9.957,45.6657],[9.9657,45.664],[9.9998,45.6721],[10.0444,45.6749],[10.0556,45.6783],[10.0632,45.6828],[10.0653,45.6913],[10.0591,45.7088],[10.0663,45.7407],[10.0638,45.7489],[10.0552,45.7619],[10.0574,45.7762],[10.0638,45.7884],[10.0716,45.7974],[10.1008,45.8093],[10.1081,45.8155],[10.1192,45.8282],[10.1214,45.836],[10.1458,45.8519],[10.1498,45.8631],[10.143,45.8688],[10.109,45.8857],[10.1073,45.8938],[10.1017,45.8988],[10.0964,45.9074],[10.098,45.9121],[10.0932,45.9204],[10.097,45.929],[10.1042,45.9304],[10.1145,45.9362],[10.1159,45.948],[10.1192,45.9542],[10.1252,45.9585],[10.14,45.9639],[10.1734,45.9711],[10.1781,45.9742],[10.1765,45.9827],[10.1888,45.9915],[10.1927,46.0008],[10.1977,46.004],[10.2062,46.0074],[10.237,46.0112],[10.2501,46.0111],[10.2614,46.0178],[10.2622,46.0208],[10.2546,46.0255],[10.2551,46.0304],[10.2492,46.0358],[10.2334,46.0348],[10.2298,46.0374],[10.2259,46.0414],[10.2281,46.0482],[10.2119,46.0507],[10.2061,46.0461],[10.2029,46.0458],[10.198,46.0471],[10.1968,46.0498],[10.1927,46.0516],[10.1758,46.0516],[10.1703,46.0546],[10.1696,46.057],[10.1754,46.0708],[10.1818,46.0799],[10.185,46.081],[10.1786,46.0864],[10.1793,46.0906],[10.1748,46.0932],[10.1713,46.103],[10.1649,46.1071],[10.1718,46.1362],[10.1633,46.1482],[10.1594,46.1595],[10.1746,46.1652],[10.1803,46.1783],[10.2257,46.1868],[10.2284,46.1922],[10.229,46.1993],[10.2534,46.2033],[10.2716,46.2111],[10.2819,46.2134],[10.2788,46.2159],[10.2801,46.2171],[10.2947,46.2237],[10.2968,46.2412],[10.3009,46.2496],[10.3143,46.2599],[10.3154,46.2765],[10.3211,46.282],[10.3285,46.2871],[10.3348,46.2882],[10.3391,46.2863],[10.3469,46.2905],[10.3714,46.2936],[10.4197,46.3337],[10.4328,46.3371],[10.4594,46.352],[10.471,46.3547],[10.4868,46.3466],[10.4981,46.3348],[10.5118,46.3347],[10.5157,46.3432],[10.521,46.3435],[10.563,46.3273],[10.5649,46.313],[10.5756,46.3056],[10.5796,46.2988],[10.5605,46.2845],[10.562,46.2816],[10.5763,46.2727],[10.5851,46.2487],[10.5849,46.2448],[10.5815,46.2403],[10.5746,46.237],[10.5689,46.2293],[10.5704,46.2221],[10.5494,46.2046],[10.5414,46.1886],[10.5546,46.1803],[10.5654,46.1668],[10.5583,46.1606],[10.5543,46.1488],[10.5466,46.1443],[10.5459,46.1418],[10.5496,46.1383],[10.5506,46.126],[10.5479,46.1156],[10.5417,46.104],[10.5357,46.0977],[10.5224,46.0887],[10.5092,46.0752],[10.4894,46.0651],[10.483,46.0572],[10.4821,46.0497],[10.4859,46.0301],[10.4844,46.024],[10.4815,46.0211],[10.4708,46.0211],[10.4625,46.0149],[10.4573,46.0091],[10.4574,46.0028],[10.4534,45.9911],[10.4522,45.9803],[10.4534,45.9766],[10.4762,45.9705],[10.4866,45.9712],[10.4894,45.9638],[10.4833,45.9505],[10.4847,45.9451],[10.4862,45.9428],[10.4914,45.942],[10.4914,45.933],[10.5086,45.9236],[10.5108,45.9156],[10.5062,45.9033],[10.5011,45.9],[10.4959,45.8997],[10.4901,45.8871],[10.4911,45.8823],[10.5037,45.8736],[10.5016,45.8609],[10.5066,45.8424],[10.5026,45.8351],[10.5025,45.8302],[10.5081,45.8239],[10.5284,45.8266],[10.5433,45.8184],[10.5434,45.8157],[10.5373,45.8108],[10.5297,45.8095],[10.5261,45.8056],[10.5311,45.8044],[10.5337,45.8006],[10.533,45.788],[10.5378,45.7856],[10.5537,45.7839],[10.5747,45.787],[10.5811,45.7895],[10.5824,45.7943],[10.5891,45.7979],[10.6114,45.8052],[10.6351,45.8067],[10.6414,45.8019],[10.645,45.8037],[10.6507,45.8122],[10.6561,45.8323],[10.6771,45.8309],[10.6956,45.8399],[10.711,45.8361],[10.7173,45.8369],[10.7258,45.8421],[10.7356,45.8427],[10.7485,45.8379],[10.7564,45.83],[10.7631,45.84],[10.7772,45.843],[10.7838,45.8365],[10.7912,45.8335],[10.7957,45.8358],[10.8036,45.8344],[10.8254,45.8377],[10.8402,45.8328],[10.8325,45.8156],[10.8148,45.804],[10.8096,45.7984],[10.772,45.7508],[10.7056,45.6764],[10.631,45.6095],[10.6285,45.6021],[10.6408,45.4792],[10.643,45.4576],[10.6476,45.4514],[10.6477,45.4485],[10.6443,45.4449],[10.6236,45.4436],[10.6273,45.4383],[10.6403,45.4435],[10.6468,45.441],[10.6474,45.4238],[10.6436,45.418],[10.6546,45.4158],[10.6551,45.4106],[10.65,45.4104],[10.6465,45.4072],[10.6426,45.3904],[10.6333,45.385],[10.6137,45.3827],[10.5979,45.3873],[10.58,45.3811],[10.5658,45.3873],[10.5559,45.388],[10.5481,45.3858],[10.524,45.4056],[10.5114,45.4123],[10.494,45.415],[10.4562,45.4155],[10.4512,45.4186],[10.4504,45.4174],[10.4542,45.4145],[10.467,45.4066],[10.4585,45.3921],[10.4503,45.3831],[10.4596,45.3786],[10.464,45.3707],[10.4685,45.3594],[10.468,45.3429],[10.4713,45.3323],[10.468,45.3345],[10.4639,45.3336],[10.4659,45.3252],[10.455,45.3249],[10.4472,45.3271],[10.4464,45.3207],[10.4284,45.3208]]]}},{"type":"Feature","properties":{"name":"Pavia","acr":"PV"},"geometry":{"type":"MultiPolygon","coordinates":[[[[8.6906,45.2925],[8.7161,45.3029],[8.7264,45.3323],[8.7248,45.3357],[8.7421,45.3321],[8.7429,45.3369],[8.7556,45.3445],[8.7604,45.3519],[8.7583,45.3546],[8.7607,45.3557],[8.7561,45.3572],[8.7464,45.3552],[8.733,45.3649],[8.7211,45.3704],[8.7191,45.3781],[8.7281,45.3754],[8.7609,45.3765],[8.764,45.3773],[8.7624,45.3821],[8.765,45.3876],[8.7691,45.3876],[8.7934,45.379],[8.8015,45.3792],[8.8119,45.3833],[8.8112,45.3891],[8.8233,45.3922],[8.8332,45.3914],[8.8429,45.3938],[8.8476,45.3903],[8.8475,45.3733],[8.8498,45.3678],[8.8679,45.3574],[8.864,45.3512],[8.8659,45.3443],[8.9104,45.3326],[8.911,45.331],[8.9063,45.3264],[8.9196,45.3205],[8.9235,45.3169],[8.9313,45.3199],[8.942,45.316],[8.9439,45.3136],[8.9446,45.2915],[8.9741,45.2736],[8.9829,45.265],[9.007,45.2781],[9.0151,45.2759],[9.0187,45.2806],[9.0152,45.2911],[8.9949,45.2957],[8.9923,45.301],[8.9987,45.3025],[8.9883,45.3216],[8.9917,45.3228],[9.0013,45.3199],[9.0202,45.326],[9.0317,45.3145],[9.0363,45.3036],[9.0317,45.3038],[9.0287,45.307],[9.025,45.305],[9.0301,45.2965],[9.0364,45.3013],[9.0719,45.3064],[9.0699,45.3145],[9.0808,45.3158],[9.0736,45.308],[9.0799,45.3035],[9.1259,45.3086],[9.1294,45.3111],[9.1347,45.3078],[9.1411,45.3096],[9.1469,45.3055],[9.1513,45.2988],[9.178,45.2994],[9.1876,45.2922],[9.1986,45.2908],[9.2007,45.2913],[9.1937,45.295],[9.1821,45.3107],[9.1966,45.317],[9.2006,45.3254],[9.2017,45.3348],[9.2085,45.3327],[9.2192,45.3259],[9.2259,45.3265],[9.2308,45.3312],[9.2295,45.3334],[9.2315,45.3336],[9.2374,45.3284],[9.246,45.3245],[9.2563,45.3258],[9.2735,45.3246],[9.2812,45.3278],[9.2823,45.3301],[9.2872,45.3304],[9.2978,45.3295],[9.3031,45.3272],[9.3091,45.3279],[9.3218,45.3222],[9.3316,45.3122],[9.338,45.3146],[9.3388,45.313],[9.3334,45.3074],[9.3346,45.3051],[9.3384,45.3057],[9.3544,45.3015],[9.3576,45.2926],[9.343,45.2912],[9.3374,45.2963],[9.3301,45.2982],[9.3229,45.2927],[9.3258,45.2922],[9.3294,45.2883],[9.3338,45.2761],[9.3415,45.2713],[9.325,45.2688],[9.3155,45.2601],[9.3104,45.249],[9.3224,45.2441],[9.3218,45.2455],[9.3279,45.2497],[9.358,45.2387],[9.3593,45.2456],[9.3514,45.2476],[9.3543,45.2498],[9.3713,45.244],[9.3811,45.2302],[9.3909,45.2317],[9.3919,45.227],[9.3873,45.224],[9.3923,45.2186],[9.3976,45.2185],[9.4022,45.2019],[9.406,45.2008],[9.4093,45.2049],[9.4172,45.2059],[9.4211,45.2027],[9.4211,45.1948],[9.4286,45.1994],[9.4322,45.1961],[9.4321,45.1916],[9.4277,45.1882],[9.4296,45.1845],[9.4385,45.1876],[9.4397,45.186],[9.447,45.187],[9.4568,45.1833],[9.4594,45.1778],[9.469,45.1686],[9.4775,45.1657],[9.4783,45.1615],[9.5316,45.1654],[9.5311,45.1619],[9.5442,45.1532],[9.5445,45.1397],[9.5429,45.1374],[9.5487,45.1327],[9.5372,45.1261],[9.5358,45.122],[9.5374,45.1149],[9.5513,45.0921],[9.5437,45.0839],[9.53,45.0784],[9.5246,45.0808],[9.5182,45.0906],[9.5015,45.1036],[9.4937,45.1034],[9.4677,45.0949],[9.439,45.0934],[9.4356,45.0818],[9.4122,45.0836],[9.4107,45.0827],[9.4126,45.0789],[9.4064,45.0732],[9.3924,45.0662],[9.3708,45.0482],[9.3756,45.0404],[9.3694,45.0237],[9.3756,45.0199],[9.3712,45.0148],[9.3659,45.003],[9.3614,45.0001],[9.3532,45.001],[9.3463,44.9959],[9.3355,44.9747],[9.3353,44.9681],[9.3375,44.9654],[9.3246,44.956],[9.3215,44.944],[9.3145,44.9368],[9.3054,44.9345],[9.2863,44.934],[9.2853,44.9302],[9.2907,44.9254],[9.293,44.9205],[9.2841,44.9035],[9.2774,44.8956],[9.2823,44.8958],[9.2928,44.8903],[9.2901,44.8822],[9.3087,44.8759],[9.3224,44.8797],[9.3265,44.8729],[9.3424,44.8673],[9.3503,44.837],[9.3592,44.8239],[9.3631,44.8224],[9.3577,44.8146],[9.3458,44.8075],[9.3284,44.7995],[9.3215,44.8],[9.3179,44.7862],[9.3072,44.78],[9.287,44.7725],[9.2847,44.7671],[9.2855,44.7601],[9.2882,44.7574],[9.3212,44.7434],[9.3326,44.735],[9.3259,44.7231],[9.3172,44.7195],[9.3085,44.7056],[9.3094,44.7023],[9.3154,44.6974],[9.3262,44.6938],[9.3251,44.6907],[9.3056,44.6883],[9.2985,44.681],[9.2876,44.6802],[9.2858,44.6845],[9.2786,44.6856],[9.266,44.684],[9.2632,44.6808],[9.2595,44.6799],[9.2556,44.6857],[9.2543,44.6921],[9.2351,44.7164],[9.2359,44.7128],[9.2323,44.7033],[9.2421,44.6875],[9.2238,44.6834],[9.202,44.686],[9.2003,44.6864],[9.2064,44.6991],[9.2072,44.7055],[9.2028,44.7221],[9.211,44.7345],[9.214,44.7455],[9.2136,44.7523],[9.1942,44.7568],[9.1717,44.7717],[9.1703,44.7764],[9.1738,44.7839],[9.1735,44.7961],[9.1653,44.8003],[9.1597,44.8063],[9.161,44.8147],[9.156,44.8154],[9.1467,44.809],[9.1261,44.8062],[9.107,44.8105],[9.0951,44.819],[9.0799,44.8142],[9.0723,44.8175],[9.075,44.823],[9.0729,44.828],[9.0704,44.8307],[9.0641,44.8302],[9.0645,44.8331],[9.049,44.8499],[9.0676,44.8601],[9.07,44.8652],[9.0615,44.876],[9.0552,44.8889],[9.0304,44.8885],[9.0184,44.9008],[9.0062,44.9037],[9.0013,44.9082],[8.9983,44.9179],[8.9772,44.9401],[8.9696,44.9435],[8.9718,44.9499],[8.9768,44.9529],[8.9783,44.9568],[8.9765,44.963],[8.9781,44.9672],[8.9606,44.9873],[8.9445,44.9871],[8.9436,44.9845],[8.9256,44.9822],[8.9254,44.9847],[8.9169,44.9881],[8.9013,45.0078],[8.9044,45.0296],[8.9022,45.0379],[8.8951,45.0404],[8.9002,45.0436],[8.8916,45.0513],[8.8857,45.0506],[8.8811,45.0541],[8.8874,45.0598],[8.8809,45.0603],[8.8636,45.0494],[8.8605,45.0512],[8.8405,45.0475],[8.838,45.0442],[8.8309,45.0427],[8.8254,45.044],[8.8218,45.0397],[8.8099,45.0343],[8.7962,45.0358],[8.7944,45.0326],[8.8023,45.0261],[8.7983,45.0211],[8.7915,45.0199],[8.7777,45.0237],[8.7764,45.0187],[8.7787,45.0132],[8.7755,45.0082],[8.7713,45.0067],[8.7676,45.007],[8.767,45.0103],[8.7617,45.0121],[8.7479,45.0091],[8.7482,45.0132],[8.7541,45.0153],[8.7505,45.0207],[8.7438,45.0237],[8.728,45.0228],[8.7206,45.0268],[8.7143,45.0365],[8.7101,45.0383],[8.705,45.0371],[8.701,45.0318],[8.7008,45.0265],[8.695,45.0232],[8.6817,45.0288],[8.6729,45.0279],[8.6668,45.0245],[8.6656,45.0203],[8.6592,45.0179],[8.652,45.0237],[8.657,45.0284],[8.6526,45.0343],[8.6442,45.0356],[8.6347,45.041],[8.6406,45.0445],[8.6452,45.057],[8.6421,45.0605],[8.6447,45.0609],[8.6373,45.0661],[8.646,45.0753],[8.6397,45.0775],[8.6366,45.0838],[8.6303,45.0882],[8.6224,45.0905],[8.6234,45.0983],[8.6133,45.1026],[8.6091,45.1069],[8.6092,45.117],[8.6131,45.1243],[8.6118,45.1275],[8.5901,45.133],[8.5865,45.1467],[8.582,45.151],[8.5544,45.1574],[8.5524,45.1593],[8.555,45.1643],[8.543,45.173],[8.5455,45.1829],[8.5624,45.1945],[8.5812,45.2022],[8.5717,45.2059],[8.5569,45.2052],[8.5506,45.2012],[8.5512,45.196],[8.5309,45.1933],[8.528,45.1946],[8.5245,45.1983],[8.5252,45.1999],[8.5322,45.1993],[8.548,45.2041],[8.5366,45.215],[8.5293,45.2171],[8.5232,45.2216],[8.5231,45.2251],[8.5271,45.2292],[8.5392,45.2301],[8.5437,45.234],[8.5417,45.2364],[8.5305,45.2374],[8.5291,45.2395],[8.5441,45.2398],[8.5487,45.238],[8.5554,45.2388],[8.5562,45.2414],[8.554,45.2434],[8.5462,45.2418],[8.5378,45.2431],[8.5258,45.2465],[8.5225,45.2492],[8.5228,45.2546],[8.5309,45.2537],[8.536,45.2476],[8.5434,45.2533],[8.5412,45.2563],[8.533,45.2581],[8.5362,45.2627],[8.5327,45.2653],[8.5361,45.2722],[8.5351,45.2778],[8.5224,45.2791],[8.5233,45.2744],[8.5141,45.2743],[8.5131,45.2803],[8.5183,45.2868],[8.512,45.291],[8.4983,45.2922],[8.5072,45.3071],[8.5135,45.3133],[8.5147,45.3117],[8.5198,45.3118],[8.534,45.3185],[8.5379,45.3172],[8.533,45.3322],[8.5264,45.3422],[8.542,45.3478],[8.5509,45.3561],[8.5538,45.3615],[8.5572,45.3533],[8.571,45.3486],[8.5779,45.3478],[8.5841,45.3511],[8.5908,45.3519],[8.5991,45.3486],[8.6135,45.3545],[8.6151,45.3526],[8.6252,45.3518],[8.6323,45.3464],[8.6317,45.3384],[8.6557,45.3257],[8.6551,45.323],[8.6593,45.3147],[8.6589,45.3037],[8.6631,45.2997],[8.6649,45.2928],[8.6889,45.294],[8.6906,45.2925]]]]}},{"type":"Feature","properties":{"name":"Cremona","acr":"CR"},"geometry":{"type":"Polygon","coordinates":[[[9.5508,45.4603],[9.5776,45.4602],[9.5788,45.4651],[9.5863,45.4697],[9.5908,45.4761],[9.5934,45.4737],[9.6086,45.4755],[9.6076,45.4714],[9.6103,45.4639],[9.62,45.4559],[9.6266,45.4561],[9.6261,45.4582],[9.6435,45.4577],[9.6519,45.4523],[9.6618,45.4372],[9.6821,45.4412],[9.6854,45.4438],[9.6898,45.4584],[9.6988,45.4606],[9.6983,45.4645],[9.7083,45.4823],[9.7198,45.4821],[9.7219,45.4768],[9.7339,45.4765],[9.7373,45.4749],[9.7359,45.4722],[9.7462,45.4682],[9.7533,45.4557],[9.7627,45.4557],[9.7703,45.4393],[9.7693,45.4302],[9.7846,45.4295],[9.7896,45.4265],[9.8079,45.4228],[9.811,45.4386],[9.8241,45.4462],[9.8142,45.453],[9.8231,45.4565],[9.8277,45.4552],[9.8351,45.448],[9.8401,45.4514],[9.8465,45.4521],[9.8522,45.4468],[9.8589,45.4334],[9.8645,45.4311],[9.8735,45.4332],[9.8896,45.4273],[9.893,45.3946],[9.8889,45.3877],[9.8874,45.3787],[9.8869,45.3645],[9.8887,45.3606],[9.8833,45.3576],[9.8948,45.3412],[9.8987,45.338],[9.9155,45.3363],[9.9289,45.3286],[9.9328,45.3289],[9.9448,45.3205],[9.9673,45.313],[9.9747,45.3083],[9.9813,45.2999],[9.9905,45.297],[10.0011,45.2882],[10.0194,45.284],[10.0293,45.2768],[10.0495,45.2804],[10.0622,45.2768],[10.0628,45.2743],[10.0721,45.2707],[10.0839,45.2696],[10.0871,45.2587],[10.0906,45.2544],[10.0996,45.2531],[10.0995,45.2486],[10.1023,45.2469],[10.1259,45.2468],[10.1412,45.2418],[10.145,45.2433],[10.1538,45.2396],[10.1605,45.2393],[10.1662,45.2421],[10.1804,45.239],[10.1893,45.2343],[10.2198,45.2247],[10.2218,45.2333],[10.2208,45.2418],[10.2231,45.2402],[10.246,45.2429],[10.2483,45.2445],[10.2504,45.2508],[10.2575,45.2526],[10.2663,45.2508],[10.2694,45.2417],[10.2783,45.2321],[10.2907,45.2265],[10.3055,45.2239],[10.3184,45.2151],[10.3177,45.2047],[10.3141,45.2027],[10.3094,45.1928],[10.3097,45.1913],[10.3115,45.1931],[10.3118,45.1887],[10.3277,45.1843],[10.33,45.1788],[10.338,45.1721],[10.3647,45.1617],[10.364,45.1577],[10.3676,45.1472],[10.3767,45.1415],[10.4036,45.1366],[10.4144,45.1333],[10.4179,45.13],[10.4223,45.1328],[10.419,45.1396],[10.4213,45.1412],[10.4312,45.1401],[10.4362,45.1361],[10.4411,45.1352],[10.4455,45.1372],[10.4454,45.1419],[10.4497,45.1443],[10.4614,45.1465],[10.4799,45.144],[10.4925,45.1324],[10.4882,45.1268],[10.4665,45.1244],[10.4591,45.1199],[10.4566,45.1153],[10.4667,45.0955],[10.4632,45.0937],[10.439,45.091],[10.4173,45.0919],[10.4152,45.0858],[10.4166,45.0762],[10.4121,45.0444],[10.4132,45.0422],[10.4198,45.0414],[10.4464,45.0469],[10.4602,45.057],[10.4669,45.0594],[10.4781,45.0568],[10.4938,45.0563],[10.4951,45.068],[10.492,45.083],[10.4974,45.0759],[10.5019,45.0749],[10.5205,45.0733],[10.5331,45.0745],[10.5322,45.072],[10.5396,45.0551],[10.5318,45.0516],[10.5343,45.0453],[10.5199,45.0408],[10.5212,45.0376],[10.5139,45.029],[10.5112,45.0183],[10.5014,45.0216],[10.4906,45.02],[10.4766,45.0143],[10.4644,45.0147],[10.4578,45.0052],[10.4586,44.9914],[10.4557,44.9824],[10.4691,44.98],[10.4844,44.9803],[10.5124,44.9838],[10.5336,44.992],[10.5393,44.9967],[10.5415,45.0015],[10.5552,45.0069],[10.571,45.002],[10.5847,45.0043],[10.5969,45.004],[10.5821,44.9976],[10.5642,44.9956],[10.5567,44.9913],[10.554,44.9865],[10.5313,44.9809],[10.5269,44.9734],[10.5234,44.9709],[10.5078,44.9724],[10.5013,44.9536],[10.4969,44.9495],[10.4717,44.9454],[10.4667,44.9425],[10.464,44.9372],[10.4516,44.9405],[10.4417,44.9408],[10.434,44.9445],[10.4229,44.9638],[10.4185,44.9751],[10.408,44.9838],[10.4013,44.9848],[10.3917,44.983],[10.3834,44.9791],[10.3653,44.9661],[10.3553,44.9662],[10.3489,44.9686],[10.3328,44.9799],[10.3089,44.9874],[10.31,44.993],[10.3047,44.999],[10.2999,45.0003],[10.2739,44.9985],[10.2651,45.0048],[10.26,45.0142],[10.2559,45.0178],[10.2111,45.034],[10.194,45.0282],[10.1873,45.0282],[10.1772,45.0319],[10.1747,45.0342],[10.1742,45.0383],[10.1688,45.0432],[10.1577,45.0441],[10.1467,45.035],[10.1062,45.0221],[10.0929,45.0238],[10.0891,45.0272],[10.0841,45.0329],[10.0823,45.0466],[10.0502,45.0413],[10.0529,45.0506],[10.0469,45.0593],[10.0435,45.0631],[10.0297,45.0668],[10.0216,45.0759],[10.0235,45.0813],[10.0295,45.0872],[10.0285,45.0962],[10.0109,45.1096],[9.9911,45.131],[9.9837,45.1337],[9.973,45.1332],[9.96,45.1214],[9.9358,45.1044],[9.9244,45.1003],[9.9158,45.1001],[9.9134,45.1035],[9.9144,45.1094],[9.9216,45.114],[9.9271,45.126],[9.9263,45.132],[9.9197,45.1376],[9.9137,45.1391],[9.9081,45.1357],[9.8911,45.1309],[9.8725,45.1406],[9.8709,45.1591],[9.8618,45.153],[9.8482,45.1554],[9.839,45.15],[9.8277,45.1542],[9.8287,45.1607],[9.8265,45.1634],[9.8199,45.1633],[9.8076,45.1588],[9.7971,45.164],[9.7856,45.1649],[9.7833,45.1732],[9.7744,45.1888],[9.7677,45.1879],[9.7567,45.1812],[9.7506,45.1823],[9.7502,45.1853],[9.7554,45.1849],[9.7585,45.1881],[9.7649,45.1992],[9.7739,45.2071],[9.7769,45.2131],[9.7655,45.2175],[9.7638,45.2227],[9.7498,45.2182],[9.7422,45.2202],[9.7433,45.2247],[9.7404,45.227],[9.7358,45.2276],[9.7322,45.225],[9.7168,45.2301],[9.7158,45.2339],[9.7251,45.2379],[9.7266,45.2415],[9.722,45.2449],[9.7121,45.2473],[9.7075,45.2513],[9.7072,45.2541],[9.7119,45.2586],[9.7175,45.2557],[9.7206,45.2565],[9.7225,45.2594],[9.719,45.263],[9.7084,45.2622],[9.6947,45.2558],[9.6918,45.2579],[9.6917,45.2636],[9.6872,45.2649],[9.6811,45.2571],[9.6752,45.2569],[9.668,45.2623],[9.672,45.2681],[9.6621,45.2733],[9.6572,45.2759],[9.652,45.272],[9.6489,45.2728],[9.6442,45.2809],[9.6388,45.284],[9.6287,45.2815],[9.6255,45.2851],[9.6296,45.2877],[9.6302,45.2915],[9.6222,45.2934],[9.6174,45.3004],[9.6125,45.3028],[9.6085,45.3118],[9.602,45.3172],[9.6055,45.3229],[9.6032,45.3267],[9.5984,45.3275],[9.5967,45.3399],[9.5905,45.3544],[9.5788,45.3634],[9.5681,45.3669],[9.5633,45.3423],[9.5515,45.3392],[9.5387,45.3435],[9.5354,45.3468],[9.5091,45.3488],[9.5106,45.3603],[9.5078,45.3668],[9.5002,45.3646],[9.4911,45.3679],[9.4795,45.3769],[9.4759,45.3744],[9.471,45.374],[9.4634,45.3771],[9.4544,45.3867],[9.4616,45.4014],[9.4696,45.4093],[9.4676,45.4133],[9.4802,45.4199],[9.4805,45.4279],[9.4885,45.4376],[9.4884,45.4401],[9.4816,45.4455],[9.4916,45.465],[9.4936,45.4785],[9.5036,45.4926],[9.5192,45.5045],[9.531,45.4942],[9.5422,45.4873],[9.5451,45.4874],[9.5412,45.4791],[9.5477,45.4631],[9.5508,45.4603]]]}},{"type":"Feature","properties":{"name":"Mantova","acr":"MN"},"geometry":{"type":"Polygon","coordinates":[[[10.4925,45.1324],[10.4799,45.144],[10.4745,45.1459],[10.4614,45.1465],[10.4497,45.1443],[10.4454,45.1419],[10.4455,45.1372],[10.4411,45.1352],[10.4362,45.1361],[10.4312,45.1401],[10.4213,45.1412],[10.419,45.1396],[10.4223,45.1328],[10.4179,45.13],[10.4144,45.1333],[10.4036,45.1366],[10.3836,45.1393],[10.3676,45.1472],[10.364,45.1577],[10.3647,45.1617],[10.338,45.1721],[10.33,45.1788],[10.3277,45.1843],[10.3136,45.187],[10.3115,45.1931],[10.3093,45.1919],[10.3141,45.2027],[10.3177,45.2047],[10.3431,45.2075],[10.3436,45.2113],[10.3614,45.2154],[10.3572,45.231],[10.362,45.2461],[10.3723,45.2408],[10.3784,45.2409],[10.3805,45.2477],[10.3835,45.2485],[10.3936,45.2456],[10.3973,45.2501],[10.3906,45.2555],[10.3971,45.2857],[10.4078,45.2927],[10.4251,45.2966],[10.4257,45.3049],[10.4315,45.313],[10.4286,45.3216],[10.4464,45.3207],[10.4472,45.3271],[10.455,45.3249],[10.4659,45.3252],[10.4639,45.3336],[10.468,45.3345],[10.4713,45.3323],[10.468,45.3429],[10.4685,45.3594],[10.464,45.3707],[10.4596,45.3786],[10.4503,45.3831],[10.4585,45.3921],[10.467,45.4066],[10.4542,45.4145],[10.4504,45.4174],[10.4512,45.4186],[10.4562,45.4155],[10.494,45.415],[10.5114,45.4123],[10.524,45.4056],[10.5481,45.3858],[10.5559,45.388],[10.5658,45.3873],[10.58,45.3811],[10.5979,45.3873],[10.6137,45.3827],[10.6333,45.385],[10.6426,45.3904],[10.6465,45.4072],[10.65,45.4104],[10.6551,45.4106],[10.6546,45.4158],[10.6652,45.4277],[10.7023,45.4214],[10.7145,45.4176],[10.7194,45.406],[10.7176,45.4008],[10.7192,45.4003],[10.7079,45.3858],[10.6983,45.379],[10.7064,45.37],[10.7146,45.3679],[10.7045,45.3594],[10.6918,45.354],[10.6855,45.3537],[10.6869,45.3426],[10.7058,45.3394],[10.715,45.3339],[10.7132,45.3237],[10.7064,45.3163],[10.7164,45.3166],[10.722,45.3188],[10.7312,45.3152],[10.7331,45.3054],[10.7283,45.2913],[10.7374,45.2872],[10.7828,45.3154],[10.812,45.2967],[10.8163,45.2934],[10.8169,45.2893],[10.827,45.2839],[10.8323,45.2776],[10.84,45.2729],[10.8408,45.2654],[10.8466,45.2566],[10.8763,45.2527],[10.8792,45.2472],[10.889,45.2486],[10.8968,45.2471],[10.8997,45.2457],[10.9021,45.2375],[10.9368,45.2329],[10.9308,45.2255],[10.9315,45.2176],[10.935,45.2142],[10.9448,45.2112],[10.947,45.2057],[10.966,45.2056],[10.9907,45.1957],[10.9968,45.1874],[10.9932,45.1841],[10.9988,45.1647],[10.9977,45.1579],[10.995,45.1535],[10.9927,45.153],[10.9937,45.1515],[11.0086,45.1503],[11.0102,45.1487],[11.0213,45.1566],[11.0284,45.1592],[11.0318,45.1523],[11.0356,45.1501],[11.0466,45.1531],[11.0505,45.1496],[11.0423,45.1439],[11.0438,45.1343],[11.0284,45.1267],[11.0287,45.123],[11.039,45.114],[11.0729,45.0987],[11.0876,45.0983],[11.0976,45.0952],[11.0941,45.0997],[11.0949,45.1061],[11.1006,45.1127],[11.1026,45.1129],[11.1056,45.1082],[11.1274,45.1032],[11.1325,45.1061],[11.1348,45.1099],[11.1377,45.1233],[11.1459,45.126],[11.1645,45.1175],[11.1739,45.1157],[11.1876,45.1099],[11.2034,45.1117],[11.2055,45.1095],[11.1775,45.0973],[11.1768,45.0885],[11.1875,45.0865],[11.1884,45.0841],[11.1755,45.0749],[11.1736,45.0708],[11.1753,45.0601],[11.1974,45.0605],[11.2122,45.0575],[11.2404,45.043],[11.2476,45.0445],[11.2595,45.0554],[11.2659,45.0562],[11.2687,45.0534],[11.2705,45.0445],[11.2631,45.0329],[11.2713,45.0271],[11.2733,45.0192],[11.2755,45.0173],[11.3087,45.0124],[11.3335,44.9914],[11.3946,44.9716],[11.4127,44.9682],[11.4255,44.9608],[11.4275,44.9528],[11.4267,44.9501],[11.4262,44.9521],[11.4057,44.9487],[11.3902,44.9558],[11.3767,44.9581],[11.3628,44.9555],[11.36,44.9509],[11.3572,44.9501],[11.3228,44.9612],[11.3087,44.9605],[11.2854,44.9568],[11.2723,44.9383],[11.2618,44.9454],[11.2462,44.9514],[11.2434,44.9479],[11.2318,44.9448],[11.2131,44.9435],[11.2021,44.9395],[11.1585,44.9381],[11.1524,44.9332],[11.1429,44.9374],[11.118,44.9545],[11.0721,44.9617],[11.0595,44.9489],[11.049,44.9512],[11.0303,44.9514],[10.9975,44.9551],[10.9888,44.9514],[10.9672,44.9348],[10.9506,44.9333],[10.9514,44.9279],[10.9414,44.9219],[10.9171,44.9241],[10.8903,44.9124],[10.8879,44.9143],[10.8888,44.9165],[10.898,44.9218],[10.8766,44.9171],[10.874,44.9218],[10.8713,44.9209],[10.866,44.9236],[10.867,44.9282],[10.8654,44.9296],[10.8477,44.9257],[10.8401,44.9319],[10.8192,44.9368],[10.8125,44.9378],[10.8088,44.9361],[10.7446,44.9489],[10.7428,44.9539],[10.7482,44.9627],[10.7424,44.9721],[10.7411,44.9809],[10.7316,44.9914],[10.7274,44.992],[10.7122,44.9853],[10.7108,44.9731],[10.7026,44.9653],[10.6947,44.9619],[10.688,44.9656],[10.6936,44.9695],[10.696,44.9745],[10.6867,44.9866],[10.6789,44.9764],[10.6647,44.9689],[10.6503,44.9481],[10.6394,44.9394],[10.6279,44.9242],[10.6252,44.9256],[10.6202,44.9246],[10.5988,44.9147],[10.5824,44.9126],[10.5698,44.9083],[10.5317,44.9131],[10.5199,44.9127],[10.5011,44.9238],[10.464,44.9372],[10.4667,44.9425],[10.4765,44.9468],[10.4969,44.9495],[10.5013,44.9536],[10.5078,44.9724],[10.5234,44.9709],[10.5269,44.9734],[10.5313,44.9809],[10.554,44.9865],[10.5567,44.9913],[10.5642,44.9956],[10.5821,44.9976],[10.5969,45.004],[10.5847,45.0043],[10.571,45.002],[10.5552,45.0069],[10.5415,45.0015],[10.5393,44.9967],[10.5336,44.992],[10.5124,44.9838],[10.4844,44.9803],[10.4691,44.98],[10.4557,44.9824],[10.4586,44.9914],[10.4578,45.0052],[10.4644,45.0147],[10.4766,45.0143],[10.4906,45.02],[10.5014,45.0216],[10.5112,45.0183],[10.5139,45.029],[10.5212,45.0376],[10.5199,45.0408],[10.5343,45.0453],[10.5318,45.0516],[10.5396,45.0551],[10.5322,45.072],[10.5331,45.0745],[10.5205,45.0733],[10.5019,45.0749],[10.4974,45.0759],[10.492,45.083],[10.4951,45.068],[10.4938,45.0563],[10.4781,45.0568],[10.4669,45.0594],[10.4602,45.057],[10.4464,45.0469],[10.4388,45.0448],[10.4163,45.0413],[10.4121,45.0444],[10.4161,45.0667],[10.4152,45.0858],[10.4173,45.0919],[10.439,45.091],[10.4632,45.0937],[10.4667,45.0955],[10.4566,45.1153],[10.4591,45.1199],[10.4665,45.1244],[10.4882,45.1268],[10.4925,45.1324]]]}},{"type":"Feature","properties":{"name":"Lecco","acr":"LC"},"geometry":{"type":"Polygon","coordinates":[[[9.3241,45.8958],[9.3124,45.9054],[9.3043,45.8994],[9.3027,45.8936],[9.2894,45.8932],[9.2841,45.8988],[9.2854,45.9025],[9.2802,45.9127],[9.2683,45.9255],[9.2695,45.9292],[9.2777,45.9368],[9.2765,45.9432],[9.2698,45.9485],[9.2565,45.949],[9.2592,45.9595],[9.2624,45.964],[9.2671,45.9664],[9.2846,45.9671],[9.2774,45.9927],[9.2727,45.999],[9.2646,46.0008],[9.2609,46.0145],[9.2648,46.0301],[9.2753,46.04],[9.2896,46.0593],[9.2893,46.0727],[9.294,46.0829],[9.2987,46.1045],[9.2951,46.1075],[9.2923,46.1158],[9.3005,46.1259],[9.3572,46.1504],[9.3619,46.1574],[9.3786,46.1521],[9.4102,46.1499],[9.4106,46.1443],[9.4141,46.1369],[9.4129,46.1194],[9.415,46.0948],[9.4305,46.0861],[9.4753,46.0721],[9.4929,46.0708],[9.5098,46.0625],[9.5088,46.0564],[9.5018,46.0457],[9.5109,46.0416],[9.5222,46.0312],[9.5269,46.0115],[9.4914,46.0117],[9.4871,46.0077],[9.4861,46.003],[9.495,45.9982],[9.4981,45.9907],[9.4991,45.9757],[9.501,45.9722],[9.508,45.967],[9.5216,45.9649],[9.5318,45.9583],[9.5368,45.9572],[9.5409,45.9442],[9.5291,45.9265],[9.528,45.9174],[9.5053,45.8987],[9.5074,45.8933],[9.5178,45.8863],[9.506,45.8842],[9.5134,45.8812],[9.5225,45.8739],[9.524,45.8703],[9.517,45.8688],[9.506,45.8701],[9.4924,45.8669],[9.4871,45.8645],[9.4933,45.8629],[9.4933,45.8586],[9.4849,45.8616],[9.4708,45.8592],[9.4669,45.8505],[9.4747,45.8405],[9.4731,45.825],[9.4812,45.8145],[9.4877,45.8102],[9.4964,45.7963],[9.4951,45.793],[9.481,45.793],[9.4775,45.7879],[9.48,45.7857],[9.4744,45.7827],[9.4688,45.7817],[9.4572,45.7882],[9.4501,45.7854],[9.4511,45.7816],[9.4706,45.7681],[9.4657,45.7644],[9.4509,45.7633],[9.4458,45.7605],[9.4571,45.747],[9.452,45.7419],[9.4473,45.7314],[9.4497,45.7159],[9.4575,45.708],[9.4595,45.7025],[9.4511,45.684],[9.4619,45.6787],[9.4707,45.6699],[9.4766,45.6693],[9.4653,45.6649],[9.4468,45.6497],[9.4226,45.6565],[9.4231,45.6601],[9.4197,45.6622],[9.4204,45.6672],[9.4144,45.6765],[9.3959,45.6701],[9.3723,45.6551],[9.3691,45.6611],[9.3602,45.6664],[9.3567,45.6674],[9.3537,45.6658],[9.3491,45.6686],[9.3413,45.6697],[9.3251,45.6641],[9.3213,45.6609],[9.3141,45.6607],[9.3057,45.6819],[9.2995,45.6834],[9.2948,45.6897],[9.2958,45.6991],[9.3002,45.7027],[9.2988,45.7086],[9.2887,45.723],[9.289,45.7266],[9.2867,45.7306],[9.2794,45.7332],[9.2814,45.7371],[9.2742,45.7422],[9.2607,45.7397],[9.2471,45.7426],[9.2567,45.7522],[9.2442,45.7673],[9.2503,45.7791],[9.2619,45.7808],[9.2626,45.7879],[9.2583,45.7925],[9.2736,45.802],[9.2742,45.8041],[9.2937,45.8126],[9.2935,45.8151],[9.2879,45.815],[9.2856,45.823],[9.289,45.8272],[9.2944,45.8282],[9.3033,45.839],[9.3204,45.8436],[9.3175,45.8467],[9.3185,45.8503],[9.3225,45.8532],[9.3275,45.8624],[9.3323,45.8646],[9.3319,45.8728],[9.3266,45.8781],[9.3209,45.8796],[9.3154,45.8882],[9.3241,45.8958]]]}},{"type":"Feature","properties":{"name":"Lodi","acr":"LO"},"geometry":{"type":"Polygon","coordinates":[[[9.6055,45.3229],[9.602,45.3172],[9.6085,45.3118],[9.6125,45.3028],[9.6174,45.3004],[9.6222,45.2934],[9.6302,45.2915],[9.6296,45.2877],[9.6255,45.2851],[9.6287,45.2815],[9.6388,45.284],[9.6442,45.2809],[9.6489,45.2728],[9.652,45.272],[9.6572,45.2759],[9.6621,45.2733],[9.672,45.2681],[9.668,45.2623],[9.6752,45.2569],[9.6811,45.2571],[9.6872,45.2649],[9.6917,45.2636],[9.6918,45.2579],[9.6947,45.2558],[9.7084,45.2622],[9.719,45.263],[9.7225,45.2594],[9.7206,45.2565],[9.7175,45.2557],[9.7119,45.2586],[9.7072,45.2541],[9.7075,45.2513],[9.7121,45.2473],[9.722,45.2449],[9.7266,45.2415],[9.7251,45.2379],[9.7158,45.2339],[9.7168,45.2301],[9.7322,45.225],[9.7358,45.2276],[9.7404,45.227],[9.7433,45.2247],[9.7422,45.2202],[9.7498,45.2182],[9.7638,45.2227],[9.7655,45.2175],[9.7769,45.2131],[9.7739,45.2071],[9.7649,45.1992],[9.7585,45.1881],[9.7554,45.1849],[9.7502,45.1853],[9.7516,45.1817],[9.7567,45.1812],[9.7677,45.1879],[9.7744,45.1888],[9.7833,45.1732],[9.7856,45.1649],[9.7971,45.164],[9.8076,45.1588],[9.8199,45.1633],[9.8265,45.1634],[9.8287,45.1607],[9.8277,45.1542],[9.839,45.15],[9.8482,45.1554],[9.8618,45.153],[9.8709,45.1591],[9.8725,45.1406],[9.8911,45.1309],[9.88,45.1264],[9.8757,45.1225],[9.8752,45.1196],[9.8786,45.1126],[9.9006,45.0954],[9.901,45.0881],[9.8968,45.0805],[9.8897,45.0763],[9.8807,45.0748],[9.8754,45.0777],[9.8692,45.0873],[9.8615,45.0936],[9.8464,45.0968],[9.8384,45.0956],[9.8322,45.0894],[9.8314,45.0811],[9.8352,45.069],[9.8332,45.0604],[9.8271,45.0536],[9.8188,45.0534],[9.8163,45.0553],[9.8168,45.0707],[9.8133,45.0781],[9.7882,45.0845],[9.7773,45.0913],[9.7667,45.1073],[9.7575,45.1125],[9.7486,45.1133],[9.7448,45.1097],[9.7531,45.0866],[9.7504,45.079],[9.7469,45.0753],[9.7378,45.0732],[9.7277,45.0621],[9.7202,45.0588],[9.7137,45.0584],[9.6837,45.0703],[9.6769,45.0776],[9.6535,45.0814],[9.6423,45.0807],[9.6323,45.0863],[9.6318,45.0914],[9.6377,45.1027],[9.6379,45.1131],[9.6409,45.1166],[9.6374,45.1255],[9.6278,45.1327],[9.6184,45.133],[9.6151,45.1262],[9.6127,45.1123],[9.6019,45.1041],[9.5874,45.0996],[9.586,45.105],[9.5686,45.1073],[9.5634,45.1186],[9.5566,45.1275],[9.5429,45.1374],[9.5445,45.1397],[9.5442,45.1532],[9.5311,45.1619],[9.5314,45.1669],[9.5266,45.1695],[9.5264,45.1788],[9.5186,45.181],[9.5157,45.1871],[9.5017,45.1861],[9.4912,45.1913],[9.4855,45.1918],[9.4707,45.2013],[9.4463,45.1892],[9.4411,45.1898],[9.4301,45.1843],[9.4277,45.1882],[9.4331,45.1936],[9.4302,45.1987],[9.4286,45.1994],[9.4211,45.1948],[9.4211,45.2027],[9.4172,45.2059],[9.4093,45.2049],[9.406,45.2008],[9.4022,45.2019],[9.3976,45.2185],[9.3923,45.2186],[9.3873,45.224],[9.3919,45.227],[9.3909,45.2317],[9.3811,45.2302],[9.3713,45.244],[9.3543,45.2498],[9.3514,45.2476],[9.3593,45.2456],[9.358,45.2387],[9.3279,45.2497],[9.3218,45.2455],[9.3224,45.2441],[9.3104,45.249],[9.3155,45.2601],[9.325,45.2688],[9.3415,45.2713],[9.3338,45.2761],[9.3294,45.2883],[9.3258,45.2922],[9.3229,45.2927],[9.3301,45.2982],[9.3374,45.2963],[9.343,45.2912],[9.3576,45.2926],[9.3544,45.3015],[9.3384,45.3057],[9.3346,45.3051],[9.3334,45.3074],[9.3362,45.3115],[9.3547,45.3208],[9.3567,45.3152],[9.3598,45.3163],[9.3663,45.3118],[9.3668,45.3062],[9.369,45.3032],[9.376,45.3025],[9.3859,45.3068],[9.3775,45.3095],[9.3766,45.3116],[9.381,45.3141],[9.3875,45.3128],[9.3922,45.315],[9.3927,45.3165],[9.3874,45.3199],[9.3833,45.3179],[9.3806,45.3188],[9.3718,45.3298],[9.3563,45.3435],[9.3624,45.3462],[9.3593,45.3588],[9.3569,45.36],[9.353,45.3677],[9.3639,45.3657],[9.3782,45.3689],[9.375,45.3791],[9.3726,45.3809],[9.3729,45.3861],[9.3816,45.3885],[9.3831,45.3964],[9.3867,45.3994],[9.4,45.3974],[9.4015,45.392],[9.4049,45.3911],[9.4111,45.4068],[9.4171,45.4108],[9.4229,45.4218],[9.426,45.422],[9.4206,45.4302],[9.4109,45.4351],[9.4171,45.4385],[9.4175,45.4515],[9.4316,45.4604],[9.4342,45.4688],[9.436,45.4693],[9.451,45.469],[9.4584,45.467],[9.4561,45.4627],[9.4619,45.4546],[9.4716,45.4482],[9.4839,45.4487],[9.4816,45.4455],[9.4887,45.4391],[9.4805,45.4279],[9.4802,45.4199],[9.4676,45.4133],[9.4696,45.4093],[9.4616,45.4014],[9.4544,45.3867],[9.4634,45.3771],[9.471,45.374],[9.4759,45.3744],[9.4795,45.3769],[9.4911,45.3679],[9.5002,45.3646],[9.5078,45.3668],[9.5106,45.3603],[9.5091,45.3488],[9.5354,45.3468],[9.5387,45.3435],[9.5515,45.3392],[9.5633,45.3423],[9.5681,45.3669],[9.5788,45.3634],[9.5905,45.3544],[9.5967,45.3399],[9.5984,45.3275],[9.6032,45.3267],[9.6055,45.3229]]]}},{"type":"Feature","properties":{"name":"Monza e della Brianza","acr":"MB"},"geometry":{"type":"Polygon","coordinates":[[[9.4031,45.5732],[9.3931,45.5673],[9.3923,45.5653],[9.3952,45.5622],[9.388,45.5588],[9.3676,45.5577],[9.3631,45.5569],[9.3614,45.5542],[9.3517,45.5587],[9.327,45.5619],[9.3228,45.5541],[9.3238,45.5498],[9.3212,45.5477],[9.3218,45.5444],[9.3252,45.5438],[9.3255,45.54],[9.3052,45.5367],[9.2733,45.5485],[9.2687,45.5513],[9.2718,45.5566],[9.2502,45.5532],[9.2557,45.5571],[9.2426,45.5634],[9.235,45.5634],[9.227,45.566],[9.227,45.5712],[9.2202,45.5704],[9.2234,45.5758],[9.2178,45.5793],[9.2031,45.576],[9.1934,45.5788],[9.1771,45.5855],[9.1739,45.5902],[9.1769,45.5918],[9.1629,45.5915],[9.1507,45.5889],[9.1468,45.5878],[9.1449,45.5837],[9.0956,45.5879],[9.094,45.591],[9.1006,45.5936],[9.1008,45.5967],[9.0944,45.6065],[9.1046,45.61],[9.1094,45.6208],[9.1078,45.6227],[9.0529,45.6232],[9.0518,45.6334],[9.0573,45.6366],[9.0617,45.6368],[9.0625,45.6411],[9.0548,45.6451],[9.0559,45.65],[9.0529,45.6574],[9.0609,45.6577],[9.0616,45.6672],[9.067,45.6851],[9.0913,45.6863],[9.1032,45.6969],[9.1095,45.6917],[9.1218,45.6885],[9.1296,45.6926],[9.1399,45.6948],[9.1538,45.6866],[9.1638,45.673],[9.1797,45.6635],[9.1944,45.6677],[9.1918,45.6784],[9.1961,45.6871],[9.1953,45.6983],[9.2042,45.7092],[9.2141,45.715],[9.2316,45.7175],[9.2352,45.727],[9.2429,45.7299],[9.2471,45.7426],[9.2607,45.7397],[9.2742,45.7422],[9.2814,45.7371],[9.2794,45.7332],[9.2867,45.7306],[9.289,45.7266],[9.2887,45.723],[9.2988,45.7086],[9.3002,45.7027],[9.2958,45.6991],[9.2948,45.6897],[9.2995,45.6834],[9.3057,45.6819],[9.3141,45.6607],[9.3213,45.6609],[9.3251,45.6641],[9.3413,45.6697],[9.3491,45.6686],[9.3537,45.6658],[9.3567,45.6674],[9.3602,45.6664],[9.3691,45.6611],[9.3723,45.6551],[9.3959,45.6701],[9.4144,45.6765],[9.4204,45.6672],[9.4197,45.6622],[9.4231,45.6601],[9.4226,45.6565],[9.4468,45.6497],[9.4653,45.6649],[9.4766,45.6693],[9.4872,45.6646],[9.4879,45.6553],[9.4903,45.6505],[9.495,45.6486],[9.4959,45.6397],[9.4903,45.6347],[9.4954,45.629],[9.487,45.622],[9.4812,45.6196],[9.4836,45.6116],[9.4823,45.6058],[9.4779,45.6048],[9.4786,45.5989],[9.4817,45.5968],[9.4665,45.5935],[9.4446,45.5919],[9.4426,45.5856],[9.4047,45.5751],[9.4031,45.5732]]]}}]}